[{"OBJECT_NAME":"ONEWEB-0456","OBJECT_ID":"2022-012AA","EPOCH":"2026-01-08T03:29:14.510976","MEAN_MOTION":13.10373874,"ECCENTRICITY":0.00016435,"INCLINATION":87.8797,"RA_OF_ASC_NODE":68.1378,"ARG_OF_PERICENTER":95.6572,"MEAN_ANOMALY":264.4743,"EPHEMERIS_TYPE":0,"CLASSIFICATION_TYPE":"U","NORAD_CAT_ID":51646,"ELEMENT_SET_NO":999,"REV_AT_EPOCH":18838,"BSTAR":0.0019083319,"MEAN_MOTION_DOT":6.79e-6,"MEAN_MOTION_DDOT":0},{"OBJECT_NAME":"ONEWEB-0457","OBJECT_ID":"2022-012AB","EPOCH":"2026-01-08T02:55:45.309216","MEAN_MOTION":13.10375434,"ECCENTRICITY":0.00019608,"INCLINATION":87.8783,"RA_OF_ASC_NODE":68.185,"ARG_OF_PERICENTER":114.0136,"MEAN_ANOMALY":246.1197,"EPHEMERIS_TYPE":0,"CLASSIFICATION_TYPE":"U","NORAD_CAT_ID":51647,"ELEMENT_SET_NO":999,"REV_AT_EPOCH":18838,"BSTAR":-0.0011385706,"MEAN_MOTION_DOT":-3.85e-6,"MEAN_MOTION_DDOT":0},{"OBJECT_NAME":"ONEWEB-0458","OBJECT_ID":"2022-012AC","EPOCH":"2026-01-08T03:26:51.257184","MEAN_MOTION":13.10373769,"ECCENTRICITY":0.00019016,"INCLINATION":87.8787,"RA_OF_ASC_NODE":68.1566,"ARG_OF_PERICENTER":98.2415,"MEAN_ANOMALY":261.8928,"EPHEMERIS_TYPE":0,"CLASSIFICATION_TYPE":"U","NORAD_CAT_ID":51648,"ELEMENT_SET_NO":999,"REV_AT_EPOCH":18834,"BSTAR":0.0023305333,"MEAN_MOTION_DOT":8.26e-6,"MEAN_MOTION_DDOT":0},{"OBJECT_NAME":"ONEWEB-0461","OBJECT_ID":"2022-012AD","EPOCH":"2026-01-08T07:22:50.190240","MEAN_MOTION":13.17650304,"ECCENTRICITY":0.00017532,"INCLINATION":87.9097,"RA_OF_ASC_NODE":37.6271,"ARG_OF_PERICENTER":98.8029,"MEAN_ANOMALY":261.3301,"EPHEMERIS_TYPE":0,"CLASSIFICATION_TYPE":"U","NORAD_CAT_ID":51649,"ELEMENT_SET_NO":999,"REV_AT_EPOCH":19283,"BSTAR":4.1082005e-5,"MEAN_MOTION_DOT":2.9e-7,"MEAN_MOTION_DDOT":0},{"OBJECT_NAME":"ONEWEB-0463","OBJECT_ID":"2022-012AE","EPOCH":"2026-01-08T03:17:24.444672","MEAN_MOTION":13.17650186,"ECCENTRICITY":0.00017454,"INCLINATION":87.9081,"RA_OF_ASC_NODE":37.7004,"ARG_OF_PERICENTER":96.973,"MEAN_ANOMALY":263.16,"EPHEMERIS_TYPE":0,"CLASSIFICATION_TYPE":"U","NORAD_CAT_ID":51650,"ELEMENT_SET_NO":999,"REV_AT_EPOCH":19259,"BSTAR":2.7185387e-5,"MEAN_MOTION_DOT":2.3e-7,"MEAN_MOTION_DDOT":0},{"OBJECT_NAME":"ONEWEB-0464","OBJECT_ID":"2022-012AF","EPOCH":"2026-01-08T03:22:04.226880","MEAN_MOTION":13.10375047,"ECCENTRICITY":0.00016036,"INCLINATION":87.8781,"RA_OF_ASC_NODE":68.1908,"ARG_OF_PERICENTER":92.6515,"MEAN_ANOMALY":267.4795,"EPHEMERIS_TYPE":0,"CLASSIFICATION_TYPE":"U","NORAD_CAT_ID":51651,"ELEMENT_SET_NO":999,"REV_AT_EPOCH":18836,"BSTAR":0.0019682733,"MEAN_MOTION_DOT":7.0e-6,"MEAN_MOTION_DDOT":0},{"OBJECT_NAME":"ONEWEB-0468","OBJECT_ID":"2022-012AG","EPOCH":"2026-01-08T03:31:38.131968","MEAN_MOTION":13.10374638,"ECCENTRICITY":0.00017939,"INCLINATION":87.8782,"RA_OF_ASC_NODE":68.183,"ARG_OF_PERICENTER":93.4797,"MEAN_ANOMALY":266.6536,"EPHEMERIS_TYPE":0,"CLASSIFICATION_TYPE":"U","NORAD_CAT_ID":51652,"ELEMENT_SET_NO":999,"REV_AT_EPOCH":18834,"BSTAR":0.0022113598,"MEAN_MOTION_DOT":7.85e-6,"MEAN_MOTION_DDOT":0},{"OBJECT_NAME":"ONEWEB-0473","OBJECT_ID":"2022-012AH","EPOCH":"2026-01-08T03:10:06.654144","MEAN_MOTION":13.10376266,"ECCENTRICITY":0.0001859,"INCLINATION":87.8783,"RA_OF_ASC_NODE":68.1889,"ARG_OF_PERICENTER":97.3027,"MEAN_ANOMALY":262.8312,"EPHEMERIS_TYPE":0,"CLASSIFICATION_TYPE":"U","NORAD_CAT_ID":51653,"ELEMENT_SET_NO":999,"REV_AT_EPOCH":18834,"BSTAR":0.00025090987,"MEAN_MOTION_DOT":1.0e-6,"MEAN_MOTION_DDOT":0},{"OBJECT_NAME":"ONEWEB-0474","OBJECT_ID":"2022-012AJ","EPOCH":"2026-01-08T04:48:06.157728","MEAN_MOTION":13.10375921,"ECCENTRICITY":0.00017519,"INCLINATION":87.8793,"RA_OF_ASC_NODE":68.1443,"ARG_OF_PERICENTER":91.1885,"MEAN_ANOMALY":268.9443,"EPHEMERIS_TYPE":0,"CLASSIFICATION_TYPE":"U","NORAD_CAT_ID":51654,"ELEMENT_SET_NO":999,"REV_AT_EPOCH":18834,"BSTAR":-0.00079921712,"MEAN_MOTION_DOT":-2.66e-6,"MEAN_MOTION_DDOT":0},{"OBJECT_NAME":"ONEWEB-0475","OBJECT_ID":"2022-012AK","EPOCH":"2026-01-08T07:13:06.437280","MEAN_MOTION":13.17648496,"ECCENTRICITY":0.0002159,"INCLINATION":87.9086,"RA_OF_ASC_NODE":37.6584,"ARG_OF_PERICENTER":77.055,"MEAN_ANOMALY":283.0822,"EPHEMERIS_TYPE":0,"CLASSIFICATION_TYPE":"U","NORAD_CAT_ID":51655,"ELEMENT_SET_NO":999,"REV_AT_EPOCH":19263,"BSTAR":-4.9537605e-5,"MEAN_MOTION_DOT":-6.0e-8,"MEAN_MOTION_DDOT":0},{"OBJECT_NAME":"ONEWEB-0490","OBJECT_ID":"2022-138A","EPOCH":"2026-01-08T07:30:25.079328","MEAN_MOTION":13.19725313,"ECCENTRICITY":0.00017038,"INCLINATION":87.9233,"RA_OF_ASC_NODE":336.7705,"ARG_OF_PERICENTER":76.3676,"MEAN_ANOMALY":283.7646,"EPHEMERIS_TYPE":0,"CLASSIFICATION_TYPE":"U","NORAD_CAT_ID":54113,"ELEMENT_SET_NO":999,"REV_AT_EPOCH":15574,"BSTAR":0.00010637276,"MEAN_MOTION_DOT":5.6e-7,"MEAN_MOTION_DDOT":0},{"OBJECT_NAME":"ONEWEB-0492","OBJECT_ID":"2022-138B","EPOCH":"2026-01-08T06:17:37.032288","MEAN_MOTION":13.19724786,"ECCENTRICITY":0.00015695,"INCLINATION":87.9224,"RA_OF_ASC_NODE":336.7933,"ARG_OF_PERICENTER":78.231,"MEAN_ANOMALY":281.8999,"EPHEMERIS_TYPE":0,"CLASSIFICATION_TYPE":"U","NORAD_CAT_ID":54114,"ELEMENT_SET_NO":999,"REV_AT_EPOCH":15574,"BSTAR":0.00013167387,"MEAN_MOTION_DOT":6.6e-7,"MEAN_MOTION_DDOT":0},{"OBJECT_NAME":"ONEWEB-0495","OBJECT_ID":"2022-138C","EPOCH":"2026-01-08T07:34:57.909792","MEAN_MOTION":13.19726895,"ECCENTRICITY":0.00017168,"INCLINATION":87.9223,"RA_OF_ASC_NODE":336.7854,"ARG_OF_PERICENTER":58.1373,"MEAN_ANOMALY":301.9927,"EPHEMERIS_TYPE":0,"CLASSIFICATION_TYPE":"U","NORAD_CAT_ID":54115,"ELEMENT_SET_NO":999,"REV_AT_EPOCH":15573,"BSTAR":-8.6213513e-5,"MEAN_MOTION_DOT":-2.2e-7,"MEAN_MOTION_DDOT":0},{"OBJECT_NAME":"ONEWEB-0497","OBJECT_ID":"2022-138D","EPOCH":"2026-01-08T04:14:48.678720","MEAN_MOTION":13.19724729,"ECCENTRICITY":0.00017264,"INCLINATION":87.9232,"RA_OF_ASC_NODE":336.8012,"ARG_OF_PERICENTER":79.015,"MEAN_ANOMALY":281.1177,"EPHEMERIS_TYPE":0,"CLASSIFICATION_TYPE":"U","NORAD_CAT_ID":54116,"ELEMENT_SET_NO":999,"REV_AT_EPOCH":15570,"BSTAR":3.394023e-5,"MEAN_MOTION_DOT":2.7e-7,"MEAN_MOTION_DDOT":0},{"OBJECT_NAME":"ONEWEB-0499","OBJECT_ID":"2022-138E","EPOCH":"2026-01-08T07:29:14.912160","MEAN_MOTION":13.19725303,"ECCENTRICITY":0.00019427,"INCLINATION":87.9223,"RA_OF_ASC_NODE":336.7861,"ARG_OF_PERICENTER":77.157,"MEAN_ANOMALY":282.978,"EPHEMERIS_TYPE":0,"CLASSIFICATION_TYPE":"U","NORAD_CAT_ID":54117,"ELEMENT_SET_NO":999,"REV_AT_EPOCH":15573,"BSTAR":-0.0003469263,"MEAN_MOTION_DOT":-1.26e-6,"MEAN_MOTION_DDOT":0},{"OBJECT_NAME":"ONEWEB-0500","OBJECT_ID":"2022-138F","EPOCH":"2026-01-07T22:26:49.037856","MEAN_MOTION":13.19725946,"ECCENTRICITY":0.0001705,"INCLINATION":87.9227,"RA_OF_ASC_NODE":336.8491,"ARG_OF_PERICENTER":83.8482,"MEAN_ANOMALY":276.2845,"EPHEMERIS_TYPE":0,"CLASSIFICATION_TYPE":"U","NORAD_CAT_ID":54118,"ELEMENT_SET_NO":999,"REV_AT_EPOCH":15569,"BSTAR":0.0002538,"MEAN_MOTION_DOT":1.15e-6,"MEAN_MOTION_DDOT":0},{"OBJECT_NAME":"ONEWEB-0501","OBJECT_ID":"2022-138G","EPOCH":"2026-01-08T06:26:44.322720","MEAN_MOTION":13.19726173,"ECCENTRICITY":0.0001758,"INCLINATION":87.9232,"RA_OF_ASC_NODE":336.7836,"ARG_OF_PERICENTER":70.1497,"MEAN_ANOMALY":289.9825,"EPHEMERIS_TYPE":0,"CLASSIFICATION_TYPE":"U","NORAD_CAT_ID":54119,"ELEMENT_SET_NO":999,"REV_AT_EPOCH":15571,"BSTAR":7.4413334e-5,"MEAN_MOTION_DOT":4.3e-7,"MEAN_MOTION_DDOT":0}]
