ONEWEB-0456             
1 51646U 22012AA  26008.14530684  .00000679  00000+0  19083-2 0  9990
2 51646  87.8797  68.1378 0001643  95.6572 264.4743 13.10373874188386
ONEWEB-0457             
1 51647U 22012AB  26008.12205219 -.00000385  00000+0 -11386-2 0  9996
2 51647  87.8783  68.1850 0001960 114.0136 246.1197 13.10375434188385
ONEWEB-0458             
1 51648U 22012AC  26008.14364881  .00000826  00000+0  23305-2 0  9992
2 51648  87.8787  68.1566 0001901  98.2415 261.8928 13.10373769188343
ONEWEB-0461             
1 51649U 22012AD  26008.30752535  .00000029  00000+0  41082-4 0  9997
2 51649  87.9097  37.6271 0001753  98.8029 261.3301 13.17650304192834
ONEWEB-0463             
1 51650U 22012AE  26008.13708848  .00000023  00000+0  27185-4 0  9990
2 51650  87.9081  37.7004 0001745  96.9730 263.1600 13.17650186192596
ONEWEB-0464             
1 51651U 22012AF  26008.14032670  .00000700  00000+0  19683-2 0  9999
2 51651  87.8781  68.1908 0001603  92.6515 267.4795 13.10375047188366
ONEWEB-0468             
1 51652U 22012AG  26008.14696912  .00000785  00000+0  22114-2 0  9991
2 51652  87.8782  68.1830 0001793  93.4797 266.6536 13.10374638188340
ONEWEB-0473             
1 51653U 22012AH  26008.13202146  .00000100  00000+0  25091-3 0  9992
2 51653  87.8783  68.1889 0001859  97.3027 262.8312 13.10376266188347
ONEWEB-0474             
1 51654U 22012AJ  26008.20007127 -.00000266  00000+0 -79922-3 0  9990
2 51654  87.8793  68.1443 0001751  91.1885 268.9443 13.10375921188349
ONEWEB-0475             
1 51655U 22012AK  26008.30076895 -.00000006  00000+0 -49538-4 0  9993
2 51655  87.9086  37.6584 0002159  77.0550 283.0822 13.17648496192631
ONEWEB-0490             
1 54113U 22138A   26008.31279027  .00000056  00000+0  10637-3 0  9997
2 54113  87.9233 336.7705 0001703  76.3676 283.7646 13.19725313155748
ONEWEB-0492             
1 54114U 22138B   26008.26223417  .00000066  00000+0  13167-3 0  9996
2 54114  87.9224 336.7933 0001569  78.2310 281.8999 13.19724786155741
ONEWEB-0495             
1 54115U 22138C   26008.31594803 -.00000022  00000+0 -86214-4 0  9991
2 54115  87.9223 336.7854 0001716  58.1373 301.9927 13.19726895155730
ONEWEB-0497             
1 54116U 22138D   26008.17695230  .00000027  00000+0  33940-4 0  9993
2 54116  87.9232 336.8012 0001726  79.0150 281.1177 13.19724729155701
ONEWEB-0499             
1 54117U 22138E   26008.31197815 -.00000126  00000+0 -34693-3 0  9993
2 54117  87.9223 336.7861 0001942  77.1570 282.9780 13.19725303155739
ONEWEB-0500             
1 54118U 22138F   26007.93528979  .00000115  00000+0  25380-3 0  9999
2 54118  87.9227 336.8491 0001705  83.8482 276.2845 13.19725946155693
ONEWEB-0501             
1 54119U 22138G   26008.26856855  .00000043  00000+0  74413-4 0  9996
2 54119  87.9232 336.7836 0001758  70.1497 289.9825 13.19726173155710
